STARLINK-30233          
1 57302U 23096N   25314.93161028  .00001625  00000+0  13531-3 0  9991
2 57302  43.0025 148.3920 0001106 246.9809 113.0917 15.02544061128850
STARLINK-30232          
1 57303U 23096P   25315.33336806  .00170330  00000+0  51447-2 0  9992
2 57303  42.9943 121.0580 0027382 289.2196 305.2331 15.32513636  5666
STARLINK-30177          
1 57305U 23096R   25315.33336806  .00186011  00000+0  53208-2 0  9994
2 57305  42.9935 119.8646 0028315 290.2393  79.5393 15.34135814  5811
STARLINK-30200          
1 57306U 23096S   25315.33336806  .00209968  00000+0  55462-2 0  9996
2 57306  42.9870 115.9886 0028939 296.2628 255.3711 15.36495861  5824
STARLINK-30209          
1 57307U 23096T   25315.16264945  .00176438  00000+0  51101-2 0  9993
2 57307  42.9867 121.1549 0029207 287.7864  71.9804 15.33761099129190
STARLINK-30163          
1 57309U 23096V   25315.33336806  .01409896  00000+0  94457-2 0  9999
2 57309  42.9839  90.5975 0033078 330.1450  70.2309 15.70964333  5921
STARLINK-30184          
1 57310U 23096W   25315.18806722  .00000920  00000+0  83104-4 0  9996
2 57310  43.0009 121.0329 0000963 258.5957 101.4777 15.02545589129194
STARLINK-30175          
1 57311U 23096X   25315.33336806  .00177821  00000+0  53078-2 0  9995
2 57311  42.9887 120.6180 0029045 286.3661 120.4144 15.32809686  5871
STARLINK-6290           
1 57328U 23099A   25315.03305200  .00000574  00000+0  57535-4 0  9991
2 57328  43.0042 174.0610 0001432 276.0833  83.9846 15.02535019129177
STARLINK-6138           
1 57329U 23099B   25315.28897829  .00000378  00000+0  43073-4 0  9996
2 57329  43.0020 172.5338 0000915 268.0363  92.0374 15.02538274128305
STARLINK-6212           
1 57330U 23099C   25315.29563533  .00000272  00000+0  35197-4 0  9992
2 57330  43.0035 172.5899 0001241 267.3401  92.7300 15.02545372128306
STARLINK-6234           
1 57331U 23099D   25315.02861486 -.00000090  00000+0  83956-5 0  9998
2 57331  43.0035 174.0256 0001411 256.5139 103.5546 15.02537067128268
STARLINK-5831           
1 57332U 23099E   25315.02638967 -.00002722  00000+0 -18637-3 0  9992
2 57332  43.0037 174.0057 0000954 281.8869  78.1866 15.02557535128266
STARLINK-5585           
1 57333U 23099F   25315.29119909  .00000109  00000+0  23109-4 0  9998
2 57333  43.0028 172.5539 0000889 265.6697  94.4044 15.02534915128302
STARLINK-5589           
1 57334U 23099G   25315.01975359 -.00000307  00000+0 -76850-5 0  9992
2 57334  43.0010 173.9519 0000535 270.3733  89.7048 15.02532815128262
STARLINK-6316           
1 57335U 23099H   25315.00863862  .00003126  00000+0  24650-3 0  9996
2 57335  43.0021 173.8761 0001130 268.2057  91.8656 15.02519800128268
