[{"OBJECT_NAME":"STARLINK-30233","OBJECT_ID":"2023-096N","EPOCH":"2025-11-10T22:21:31.128192","MEAN_MOTION":15.02544061,"ECCENTRICITY":0.00011067,"INCLINATION":43.0025,"RA_OF_ASC_NODE":148.392,"ARG_OF_PERICENTER":246.9809,"MEAN_ANOMALY":113.0917,"EPHEMERIS_TYPE":0,"CLASSIFICATION_TYPE":"U","NORAD_CAT_ID":57302,"ELEMENT_SET_NO":999,"REV_AT_EPOCH":12885,"BSTAR":0.00013531325,"MEAN_MOTION_DOT":1.625e-5,"MEAN_MOTION_DDOT":0},{"OBJECT_NAME":"STARLINK-30232","OBJECT_ID":"2023-096P","EPOCH":"2025-11-11T08:00:03.000384","MEAN_MOTION":15.32513636,"ECCENTRICITY":0.00273825,"INCLINATION":42.9943,"RA_OF_ASC_NODE":121.058,"ARG_OF_PERICENTER":289.2196,"MEAN_ANOMALY":305.2331,"EPHEMERIS_TYPE":0,"CLASSIFICATION_TYPE":"U","NORAD_CAT_ID":57303,"ELEMENT_SET_NO":999,"REV_AT_EPOCH":566,"BSTAR":0.0051446701,"MEAN_MOTION_DOT":0.0017033,"MEAN_MOTION_DDOT":0},{"OBJECT_NAME":"STARLINK-30177","OBJECT_ID":"2023-096R","EPOCH":"2025-11-11T08:00:03.000384","MEAN_MOTION":15.34135814,"ECCENTRICITY":0.00283159,"INCLINATION":42.9935,"RA_OF_ASC_NODE":119.8646,"ARG_OF_PERICENTER":290.2393,"MEAN_ANOMALY":79.5393,"EPHEMERIS_TYPE":0,"CLASSIFICATION_TYPE":"U","NORAD_CAT_ID":57305,"ELEMENT_SET_NO":999,"REV_AT_EPOCH":581,"BSTAR":0.0053207836,"MEAN_MOTION_DOT":0.00186011,"MEAN_MOTION_DDOT":0},{"OBJECT_NAME":"STARLINK-30200","OBJECT_ID":"2023-096S","EPOCH":"2025-11-11T08:00:03.000384","MEAN_MOTION":15.36495861,"ECCENTRICITY":0.00289398,"INCLINATION":42.987,"RA_OF_ASC_NODE":115.9886,"ARG_OF_PERICENTER":296.2628,"MEAN_ANOMALY":255.3711,"EPHEMERIS_TYPE":0,"CLASSIFICATION_TYPE":"U","NORAD_CAT_ID":57306,"ELEMENT_SET_NO":999,"REV_AT_EPOCH":582,"BSTAR":0.0055462255,"MEAN_MOTION_DOT":0.00209968,"MEAN_MOTION_DDOT":0},{"OBJECT_NAME":"STARLINK-30209","OBJECT_ID":"2023-096T","EPOCH":"2025-11-11T03:54:12.912480","MEAN_MOTION":15.33761099,"ECCENTRICITY":0.00292072,"INCLINATION":42.9867,"RA_OF_ASC_NODE":121.1549,"ARG_OF_PERICENTER":287.7864,"MEAN_ANOMALY":71.9804,"EPHEMERIS_TYPE":0,"CLASSIFICATION_TYPE":"U","NORAD_CAT_ID":57307,"ELEMENT_SET_NO":999,"REV_AT_EPOCH":12919,"BSTAR":0.0051101257,"MEAN_MOTION_DOT":0.00176438,"MEAN_MOTION_DDOT":0},{"OBJECT_NAME":"STARLINK-30163","OBJECT_ID":"2023-096V","EPOCH":"2025-11-11T08:00:03.000384","MEAN_MOTION":15.70964333,"ECCENTRICITY":0.00330781,"INCLINATION":42.9839,"RA_OF_ASC_NODE":90.5975,"ARG_OF_PERICENTER":330.145,"MEAN_ANOMALY":70.2309,"EPHEMERIS_TYPE":0,"CLASSIFICATION_TYPE":"U","NORAD_CAT_ID":57309,"ELEMENT_SET_NO":999,"REV_AT_EPOCH":592,"BSTAR":0.0094456782,"MEAN_MOTION_DOT":0.01409896,"MEAN_MOTION_DDOT":0},{"OBJECT_NAME":"STARLINK-30184","OBJECT_ID":"2023-096W","EPOCH":"2025-11-11T04:30:49.007808","MEAN_MOTION":15.02545589,"ECCENTRICITY":9.633e-5,"INCLINATION":43.0009,"RA_OF_ASC_NODE":121.0329,"ARG_OF_PERICENTER":258.5957,"MEAN_ANOMALY":101.4777,"EPHEMERIS_TYPE":0,"CLASSIFICATION_TYPE":"U","NORAD_CAT_ID":57310,"ELEMENT_SET_NO":999,"REV_AT_EPOCH":12919,"BSTAR":8.3104438e-5,"MEAN_MOTION_DOT":9.2e-6,"MEAN_MOTION_DDOT":0},{"OBJECT_NAME":"STARLINK-30175","OBJECT_ID":"2023-096X","EPOCH":"2025-11-11T08:00:03.000384","MEAN_MOTION":15.32809686,"ECCENTRICITY":0.00290453,"INCLINATION":42.9887,"RA_OF_ASC_NODE":120.618,"ARG_OF_PERICENTER":286.3661,"MEAN_ANOMALY":120.4144,"EPHEMERIS_TYPE":0,"CLASSIFICATION_TYPE":"U","NORAD_CAT_ID":57311,"ELEMENT_SET_NO":999,"REV_AT_EPOCH":587,"BSTAR":0.0053078001,"MEAN_MOTION_DOT":0.00177821,"MEAN_MOTION_DDOT":0},{"OBJECT_NAME":"STARLINK-6290","OBJECT_ID":"2023-099A","EPOCH":"2025-11-11T00:47:35.692800","MEAN_MOTION":15.02535019,"ECCENTRICITY":0.00014327,"INCLINATION":43.0042,"RA_OF_ASC_NODE":174.061,"ARG_OF_PERICENTER":276.0833,"MEAN_ANOMALY":83.9846,"EPHEMERIS_TYPE":0,"CLASSIFICATION_TYPE":"U","NORAD_CAT_ID":57328,"ELEMENT_SET_NO":999,"REV_AT_EPOCH":12917,"BSTAR":5.7535082e-5,"MEAN_MOTION_DOT":5.74e-6,"MEAN_MOTION_DDOT":0},{"OBJECT_NAME":"STARLINK-6138","OBJECT_ID":"2023-099B","EPOCH":"2025-11-11T06:56:07.724256","MEAN_MOTION":15.02538274,"ECCENTRICITY":9.159e-5,"INCLINATION":43.002,"RA_OF_ASC_NODE":172.5338,"ARG_OF_PERICENTER":268.0363,"MEAN_ANOMALY":92.0374,"EPHEMERIS_TYPE":0,"CLASSIFICATION_TYPE":"U","NORAD_CAT_ID":57329,"ELEMENT_SET_NO":999,"REV_AT_EPOCH":12830,"BSTAR":4.3072685e-5,"MEAN_MOTION_DOT":3.78e-6,"MEAN_MOTION_DDOT":0},{"OBJECT_NAME":"STARLINK-6212","OBJECT_ID":"2023-099C","EPOCH":"2025-11-11T07:05:42.892512","MEAN_MOTION":15.02545372,"ECCENTRICITY":0.00012411,"INCLINATION":43.0035,"RA_OF_ASC_NODE":172.5899,"ARG_OF_PERICENTER":267.3401,"MEAN_ANOMALY":92.73,"EPHEMERIS_TYPE":0,"CLASSIFICATION_TYPE":"U","NORAD_CAT_ID":57330,"ELEMENT_SET_NO":999,"REV_AT_EPOCH":12830,"BSTAR":3.5197414e-5,"MEAN_MOTION_DOT":2.72e-6,"MEAN_MOTION_DDOT":0},{"OBJECT_NAME":"STARLINK-6234","OBJECT_ID":"2023-099D","EPOCH":"2025-11-11T00:41:12.323904","MEAN_MOTION":15.02537067,"ECCENTRICITY":0.00014119,"INCLINATION":43.0035,"RA_OF_ASC_NODE":174.0256,"ARG_OF_PERICENTER":256.5139,"MEAN_ANOMALY":103.5546,"EPHEMERIS_TYPE":0,"CLASSIFICATION_TYPE":"U","NORAD_CAT_ID":57331,"ELEMENT_SET_NO":999,"REV_AT_EPOCH":12826,"BSTAR":8.395592e-6,"MEAN_MOTION_DOT":-9.0e-7,"MEAN_MOTION_DDOT":0},{"OBJECT_NAME":"STARLINK-5831","OBJECT_ID":"2023-099E","EPOCH":"2025-11-11T00:38:00.067488","MEAN_MOTION":15.02557535,"ECCENTRICITY":9.546e-5,"INCLINATION":43.0037,"RA_OF_ASC_NODE":174.0057,"ARG_OF_PERICENTER":281.8869,"MEAN_ANOMALY":78.1866,"EPHEMERIS_TYPE":0,"CLASSIFICATION_TYPE":"U","NORAD_CAT_ID":57332,"ELEMENT_SET_NO":999,"REV_AT_EPOCH":12826,"BSTAR":-0.00018637313,"MEAN_MOTION_DOT":-2.722e-5,"MEAN_MOTION_DDOT":0},{"OBJECT_NAME":"STARLINK-5585","OBJECT_ID":"2023-099F","EPOCH":"2025-11-11T06:59:19.601376","MEAN_MOTION":15.02534915,"ECCENTRICITY":8.89e-5,"INCLINATION":43.0028,"RA_OF_ASC_NODE":172.5539,"ARG_OF_PERICENTER":265.6697,"MEAN_ANOMALY":94.4044,"EPHEMERIS_TYPE":0,"CLASSIFICATION_TYPE":"U","NORAD_CAT_ID":57333,"ELEMENT_SET_NO":999,"REV_AT_EPOCH":12830,"BSTAR":2.3109017e-5,"MEAN_MOTION_DOT":1.09e-6,"MEAN_MOTION_DDOT":0},{"OBJECT_NAME":"STARLINK-5589","OBJECT_ID":"2023-099G","EPOCH":"2025-11-11T00:28:26.710176","MEAN_MOTION":15.02532815,"ECCENTRICITY":5.358e-5,"INCLINATION":43.001,"RA_OF_ASC_NODE":173.9519,"ARG_OF_PERICENTER":270.3733,"MEAN_ANOMALY":89.7048,"EPHEMERIS_TYPE":0,"CLASSIFICATION_TYPE":"U","NORAD_CAT_ID":57334,"ELEMENT_SET_NO":999,"REV_AT_EPOCH":12826,"BSTAR":-7.684976e-6,"MEAN_MOTION_DOT":-3.07e-6,"MEAN_MOTION_DDOT":0},{"OBJECT_NAME":"STARLINK-6316","OBJECT_ID":"2023-099H","EPOCH":"2025-11-11T00:12:26.376768","MEAN_MOTION":15.025198,"ECCENTRICITY":0.00011305,"INCLINATION":43.0021,"RA_OF_ASC_NODE":173.8761,"ARG_OF_PERICENTER":268.2057,"MEAN_ANOMALY":91.8656,"EPHEMERIS_TYPE":0,"CLASSIFICATION_TYPE":"U","NORAD_CAT_ID":57335,"ELEMENT_SET_NO":999,"REV_AT_EPOCH":12826,"BSTAR":0.00024650002,"MEAN_MOTION_DOT":3.126e-5,"MEAN_MOTION_DDOT":0}]
